STARLINK-3913           
1 52485U 22049AL  25272.68046419  .00001306  00000+0  10011-3 0  9992
2 52485  53.2170  51.9167 0001526 102.7180 257.3983 15.08847611188089
STARLINK-3918           
1 52486U 22049AM  25272.65379742 -.00000929  00000+0 -40279-4 0  9990
2 52486  53.2182  62.0409 0001269  90.0464 270.0674 15.08834132187940
STARLINK-3902           
1 52487U 22049AN  25272.82402794 -.00001266  00000+0 -61528-4 0  9999
2 52487  53.2182  51.3781 0001180  97.1981 262.9146 15.08823518189345
STARLINK-3892           
1 52488U 22049AP  25272.65011326  .00006167  00000+0  40519-3 0  9997
2 52488  53.2175  62.0553 0001481  87.6474 272.4687 15.08844673187944
STARLINK-3923           
1 52489U 22049AQ  25272.78995198 -.00000341  00000+0 -33462-5 0  9991
2 52489  53.2176  61.4288 0001401  88.4673 271.6479 15.08848990187964
STARLINK-3914           
1 52490U 22049AR  25272.59950894  .00002796  00000+0  19362-3 0  9991
2 52490  53.2163  52.2850 0001338  62.4889 297.6239 15.08850498188076
STARLINK-3908           
1 52491U 22049AS  25272.80558909  .00001795  00000+0  13078-3 0  9993
2 52491  53.2172  51.3586 0001094  97.6039 262.5077 15.08855015188104
STARLINK-3916           
1 52492U 22049AT  25272.79086073  .00002311  00000+0  16317-3 0  9994
2 52492  53.2173  51.4230 0001387  70.6562 289.4580 15.08851519188102
STARLINK-3883           
1 52493U 22049AU  25272.80190507  .00000904  00000+0  74871-4 0  9991
2 52493  53.2175  51.3753 0001299  94.3767 265.7374 15.08846622188103
STARLINK-3857           
1 52494U 22049AV  25272.64735400  .00001501  00000+0  11234-3 0  9998
2 52494  53.2186  52.0666 0001310  87.3852 272.7290 15.08841900188084
STARLINK-3871           
1 52496U 22049AX  25272.68276470  .00001801  00000+0  13117-3 0  9996
2 52496  53.2188  46.9078 0001364  90.8751 269.2398 15.08846740188158
STARLINK-3884           
1 52497U 22049AY  25271.72735048  .00001030  00000+0  82791-4 0  9991
2 52497  53.2183  56.1988 0001412  79.4408 280.6744 15.08842365187940
STARLINK-3925           
1 52498U 22049AZ  25272.76235086  .00008798  00000+0  56974-3 0  9995
2 52498  53.2170  41.5499 0001294  94.2523 265.8617 15.08865925188237
STARLINK-3894           
1 52499U 22049BA  25272.65103059  .00001235  00000+0  95642-4 0  9993
2 52499  53.2176  52.0507 0001244  90.1279 269.9856 15.08847181188086
STARLINK-3866           
1 52500U 22049BB  25272.62619235  .00001206  00000+0  93835-4 0  9991
2 52500  53.2187  42.1640 0001309  77.4849 282.6290 15.08855821188211
STARLINK-3907           
1 52501U 22049BC  25272.62893175  .00008051  00000+0  52309-3 0  9994
2 52501  53.2161  51.9451 0000782  85.3791 274.7291 15.08856235188088
STARLINK-3912           
1 52502U 22049BD  25272.62252874  .00000960  00000+0  78377-4 0  9995
2 52502  53.2185  42.2059 0001597  98.9046 261.2127 15.08838928188213
STARLINK-3861           
1 52503U 22049BE  25272.67769723  .00001343  00000+0  10246-3 0  9993
2 52503  53.2185  41.8122 0001313  88.9506 271.1637 15.08843679188222
STARLINK-3952           
1 52534U 22051B   25272.81662897  .00000727  00000+0  63781-4 0  9998
2 52534  53.2158 131.3079 0001347  86.0696 274.0450 15.08844966187895
STARLINK-3958           
1 52535U 22051C   25272.81295414 -.00000011  00000+0  17428-4 0  9990
2 52535  53.2174 131.3206 0001583  71.9322 288.1842 15.08840664187158
STARLINK-3964           
1 52536U 22051D   25272.80927990  .00002808  00000+0  19443-3 0  9994
2 52536  53.2173 131.3409 0001230  69.6640 290.4484 15.08847108187157
STARLINK-3897           
1 52537U 22051E   25272.78717257  .00000908  00000+0  75144-4 0  9995
2 52537  53.2165 131.2456 0001262  87.9468 272.1669 15.08838548187156
STARLINK-3933           
1 52538U 22051F   25272.79823439  .00003818  00000+0  25778-3 0  9997
2 52538  53.2162 131.3913 0001260  95.9532 264.1604 15.08843598187153
STARLINK-3757           
1 52539U 22051G   25272.80191331  .00000020  00000+0  19330-4 0  9999
2 52539  53.2183 131.3749 0001361 110.0333 250.0806 15.08841737187155
STARLINK-3940           
1 52540U 22051H   25272.79087497  .00000235  00000+0  32873-4 0  9991
2 52540  53.2164 131.4599 0001413  93.7614 266.3540 15.08846901187150
STARLINK-3845           
1 52541U 22051J   25272.82169326  .00000239  00000+0  33109-4 0  9995
2 52541  53.2160 136.2862 0001324  86.3585 273.7558 15.08843137187080
STARLINK-3937           
1 52542U 22051K   25271.85615592 -.00000215  00000+0  45546-5 0  9993
2 52542  53.2165 135.6205 0001304  78.8647 281.2491 15.08835636187011
STARLINK-3926           
1 52543U 22051L   25272.79455466  .00000712  00000+0  62791-4 0  9991
2 52543  53.2157 131.4068 0001142  87.0984 273.0139 15.08837375187155
STARLINK-3944           
1 52544U 22051M   25272.81433718  .00004948  00000+0  32878-3 0  9998
2 52544  53.2161 136.3302 0001327 102.6049 257.5091 15.08839774187088
STARLINK-3948           
1 52546U 22051P   25272.82124024  .00000394  00000+0  42855-4 0  9996
2 52546  53.2167 131.0525 0001356  81.9258 278.1888 15.08841243187164
STARLINK-3931           
1 52548U 22051R   25272.82767589 -.00001042  00000+0 -47365-4 0  9991
2 52548  53.2173 131.2615 0001752  99.6797 260.4393 15.08835911187169
STARLINK-3935           
1 52549U 22051S   25271.85247070  .00000951  00000+0  77859-4 0  9999
2 52549  53.2164 135.6354 0001387 103.3058 256.8089 15.08840411187011
STARLINK-3965           
1 52550U 22051T   25272.83505351 -.00001913  00000+0 -10222-3 0  9990
2 52550  53.2165 131.2248 0001292  98.1128 262.0011 15.08821474187160
STARLINK-3969           
1 52551U 22051U   25272.84239435  .00000039  00000+0  20527-4 0  9995
2 52551  53.2154 131.1905 0001235  92.8971 267.2162 15.08840684187160
STARLINK-3966           
1 52552U 22051V   25272.83873216 -.00002023  00000+0 -10909-3 0  9995
2 52552  53.2153 131.3645 0001252  81.2384 278.8750 15.08834869187161
STARLINK-3858           
1 52553U 22051W   25272.80555358  .00000458  00000+0  46873-4 0  9995
2 52553  53.2172 131.0130 0001203  90.5877 269.5253 15.08840712187164
STARLINK-3770           
1 52554U 22051X   25272.81065103  .00001245  00000+0  96302-4 0  9998
2 52554  53.2167 136.3343 0001169  90.1573 269.9553 15.08842307187083
STARLINK-3763           
1 52556U 22051Z   25272.64208684  .00103155  00000+0  18591-2 0  9999
2 52556  53.1861  55.5750 0001893 294.6302  65.4509 15.48989062188214
STARLINK-3943           
1 52557U 22051AA  25272.82031203  .00002248  00000+0  15926-3 0  9992
2 52557  53.2154 131.2891 0001350  78.0293 282.0850 15.08845291187160
STARLINK-3953           
1 52559U 22051AC  25272.83229618  .00000922  00000+0  76029-4 0  9993
2 52559  53.2161 121.4173 0001318  93.4786 266.6357 15.08836735187293
STARLINK-3956           
1 52560U 22051AD  25272.81756038 -.00001524  00000+0 -77713-4 0  9996
2 52560  53.2170 121.3011 0001369 106.9434 253.1708 15.08834556187291
STARLINK-3955           
1 52561U 22051AE  25272.79961272  .00000073  00000+0  22645-4 0  9992
2 52561  53.2165 136.3821 0001300  99.3507 260.7632 15.08841290187082
STARLINK-3957           
1 52562U 22051AF  25272.81019345  .00000602  00000+0  55916-4 0  9996
2 52562  53.2160 121.3364 0001287  88.4305 271.6834 15.08840292187292
STARLINK-3942           
1 52563U 22051AG  25272.80329088  .00000296  00000+0  36690-4 0  9991
2 52563  53.2164 136.3676 0001584 107.8850 252.2315 15.08844018187086
STARLINK-3959           
1 52564U 22051AH  25272.79686802  .00003364  00000+0  22919-3 0  9997
2 52564  53.2175 136.4091 0001374 100.9955 259.1192 15.08868320187089
STARLINK-3911           
1 52565U 22051AJ  25272.81388769  .00007483  00000+0  48772-3 0  9993
2 52565  53.2162 121.3230 0001027  96.8479 263.2630 15.08843317187298
STARLINK-3938           
1 52566U 22051AK  25272.84009097 -.00002502  00000+0 -13914-3 0  9990
2 52566  53.2147 136.2074 0001036  89.5040 270.6071 15.08842022187097
STARLINK-3929           
1 52567U 22051AL  25272.80650854  .00000263  00000+0  34636-4 0  9995
2 52567  53.2169 121.3521 0001334  90.8983 269.2162 15.08843544187293
STARLINK-3930           
1 52568U 22051AM  25272.79547804  .00005261  00000+0  34821-3 0  9992
2 52568  53.2152 121.4027 0001224  74.9163 285.1965 15.08859751187294
STARLINK-3927           
1 52569U 22051AN  25272.80283465  .00005513  00000+0  36429-3 0  9991
2 52569  53.2157 121.3728 0001513  80.5902 279.5261 15.08832118187296
STARLINK-3901           
1 52574U 22051AQ  25272.79915404  .00000208  00000+0  31148-4 0  9990
2 52574  53.2166 121.3865 0001292  98.2988 261.8151 15.08840510187295
STARLINK-3920           
1 52575U 22051AR  25272.83336806  .00558906  00000+0  37155-2 0  9994
2 52575  53.2172 103.7845 0000511  56.1347  96.1247 15.73273765  5917
STARLINK-3932           
1 52576U 22051AS  25272.58298977  .00000807  00000+0  68803-4 0  9991
2 52576  53.2164 122.3567 0001356  81.7320 278.3826 15.08842637187264
STARLINK-3836           
1 52577U 22051AT  25272.83273154  .00001032  00000+0  82942-4 0  9991
2 52577  53.2156 136.2371 0001448  93.0525 267.0633 15.08844705187098
STARLINK-3833           
1 52578U 22051AU  25272.83641337  .00000196  00000+0  30413-4 0  9990
2 52578  53.2169 136.2148 0001465 110.9119 249.2030 15.08839710187095
STARLINK-3893           
1 52579U 22051AV  25272.82537400  .00002224  00000+0  15780-3 0  9998
2 52579  53.2157 136.2697 0001439  96.9142 263.2014 15.08833889187091
STARLINK-3919           
1 52580U 22051AW  25272.83001676  .00002338  00000+0  16493-3 0  9990
2 52580  53.2158 136.2583 0001353  79.5315 280.5830 15.08841063187093
STARLINK-3915           
1 52581U 22051AX  25271.98219430  .00000011  00000+0  18794-4 0  9998
2 52581  53.2158 125.0545 0001106  85.1914 274.9204 15.08848806187175
STARLINK-3895           
1 52583U 22051AZ  25272.57467448  .00001443  00000+0  10871-3 0  9997
2 52583  53.2172 122.3955 0001356  83.9344 276.1802 15.08843980187264
